<?xml version="1.0" encoding="UTF-8"?>
<!-- track-length = 26474 filtered ascend = 5 plain-ascend = -8 cost=27420 energy=.1kwh time=1h 14m 40s -->
<gpx 
 xmlns="http://www.topografix.com/GPX/1/1" 
 xmlns:xsi="http://www.w3.org/2001/XMLSchema-instance" 
 xsi:schemaLocation="http://www.topografix.com/GPX/1/1 http://www.topografix.com/GPX/1/1/gpx.xsd" 
 creator="BRouter-1.7.9" version="1.1">
 <trk>
  <name>Dresden → Meißen</name>
  <trkseg>
   <trkpt lon="13.737235" lat="51.050395"><ele>113.0</ele></trkpt>
   <trkpt lon="13.737238" lat="51.050406"><ele>113.0</ele></trkpt>
   <trkpt lon="13.737264" lat="51.050494"><ele>113.0</ele></trkpt>
   <trkpt lon="13.737289" lat="51.050595"><ele>113.0</ele></trkpt>
   <trkpt lon="13.737383" lat="51.051034"><ele>113.0</ele></trkpt>
   <trkpt lon="13.737471" lat="51.051473"><ele>112.5</ele></trkpt>
   <trkpt lon="13.737538" lat="51.051849"><ele>112.0</ele></trkpt>
   <trkpt lon="13.737545" lat="51.051887"><ele>112.0</ele></trkpt>
   <trkpt lon="13.737633" lat="51.052327"><ele>112.0</ele></trkpt>
   <trkpt lon="13.737674" lat="51.052506"><ele>112.0</ele></trkpt>
   <trkpt lon="13.737733" lat="51.052637"><ele>112.0</ele></trkpt>
   <trkpt lon="13.737853" lat="51.052858"><ele>112.0</ele></trkpt>
   <trkpt lon="13.737868" lat="51.052886"><ele>112.0</ele></trkpt>
   <trkpt lon="13.737934" lat="51.052984"><ele>112.0</ele></trkpt>
   <trkpt lon="13.738060" lat="51.053157"><ele>112.0</ele></trkpt>
   <trkpt lon="13.738119" lat="51.053242"><ele>112.0</ele></trkpt>
   <trkpt lon="13.738314" lat="51.053462"><ele>112.25</ele></trkpt>
   <trkpt lon="13.738547" lat="51.053738"><ele>113.25</ele></trkpt>
   <trkpt lon="13.738989" lat="51.053799"><ele>113.5</ele></trkpt>
   <trkpt lon="13.739181" lat="51.053788"><ele>113.25</ele></trkpt>
   <trkpt lon="13.740039" lat="51.053689"><ele>115.0</ele></trkpt>
   <trkpt lon="13.740168" lat="51.053690"><ele>112.0</ele></trkpt>
   <trkpt lon="13.740181" lat="51.053753"><ele>110.25</ele></trkpt>
   <trkpt lon="13.739600" lat="51.053878"><ele>108.25</ele></trkpt>
   <trkpt lon="13.739201" lat="51.053978"><ele>109.0</ele></trkpt>
   <trkpt lon="13.738759" lat="51.054104"><ele>110.0</ele></trkpt>
   <trkpt lon="13.738344" lat="51.054243"><ele>108.75</ele></trkpt>
   <trkpt lon="13.738111" lat="51.054323"><ele>108.75</ele></trkpt>
   <trkpt lon="13.738162" lat="51.054377"><ele>108.0</ele></trkpt>
   <trkpt lon="13.738185" lat="51.054403"><ele>107.5</ele></trkpt>
   <trkpt lon="13.737881" lat="51.054529"><ele>106.75</ele></trkpt>
   <trkpt lon="13.737593" lat="51.054649"><ele>107.25</ele></trkpt>
   <trkpt lon="13.737140" lat="51.054840"><ele>108.5</ele></trkpt>
   <trkpt lon="13.736788" lat="51.055125"><ele>107.5</ele></trkpt>
   <trkpt lon="13.736611" lat="51.055260"><ele>106.5</ele></trkpt>
   <trkpt lon="13.736434" lat="51.055369"><ele>108.0</ele></trkpt>
   <trkpt lon="13.736165" lat="51.055482"><ele>107.25</ele></trkpt>
   <trkpt lon="13.736007" lat="51.055568"><ele>107.25</ele></trkpt>
   <trkpt lon="13.735833" lat="51.055649"><ele>107.75</ele></trkpt>
   <trkpt lon="13.735768" lat="51.055701"><ele>107.5</ele></trkpt>
   <trkpt lon="13.735725" lat="51.055753"><ele>107.5</ele></trkpt>
   <trkpt lon="13.735243" lat="51.056124"><ele>107.25</ele></trkpt>
   <trkpt lon="13.734834" lat="51.056423"><ele>108.0</ele></trkpt>
   <trkpt lon="13.734679" lat="51.056542"><ele>108.0</ele></trkpt>
   <trkpt lon="13.734140" lat="51.057005"><ele>108.75</ele></trkpt>
   <trkpt lon="13.733887" lat="51.057240"><ele>108.5</ele></trkpt>
   <trkpt lon="13.733852" lat="51.057253"><ele>108.5</ele></trkpt>
   <trkpt lon="13.733780" lat="51.057319"><ele>108.25</ele></trkpt>
   <trkpt lon="13.733766" lat="51.057350"><ele>107.75</ele></trkpt>
   <trkpt lon="13.733478" lat="51.057613"><ele>108.0</ele></trkpt>
   <trkpt lon="13.732956" lat="51.058163"><ele>107.25</ele></trkpt>
   <trkpt lon="13.732831" lat="51.058305"><ele>108.25</ele></trkpt>
   <trkpt lon="13.732807" lat="51.058319"><ele>108.5</ele></trkpt>
   <trkpt lon="13.732750" lat="51.058382"><ele>108.25</ele></trkpt>
   <trkpt lon="13.732742" lat="51.058408"><ele>108.0</ele></trkpt>
   <trkpt lon="13.732625" lat="51.058541"><ele>107.5</ele></trkpt>
   <trkpt lon="13.732317" lat="51.058920"><ele>107.25</ele></trkpt>
   <trkpt lon="13.731945" lat="51.059462"><ele>107.5</ele></trkpt>
   <trkpt lon="13.731721" lat="51.059555"><ele>108.25</ele></trkpt>
   <trkpt lon="13.730875" lat="51.059890"><ele>109.0</ele></trkpt>
   <trkpt lon="13.730322" lat="51.060132"><ele>108.25</ele></trkpt>
   <trkpt lon="13.729270" lat="51.060547"><ele>109.0</ele></trkpt>
   <trkpt lon="13.729013" lat="51.060650"><ele>108.75</ele></trkpt>
   <trkpt lon="13.728804" lat="51.060728"><ele>108.5</ele></trkpt>
   <trkpt lon="13.728610" lat="51.060808"><ele>109.0</ele></trkpt>
   <trkpt lon="13.728477" lat="51.060869"><ele>109.0</ele></trkpt>
   <trkpt lon="13.728431" lat="51.060894"><ele>109.0</ele></trkpt>
   <trkpt lon="13.728361" lat="51.060932"><ele>109.0</ele></trkpt>
   <trkpt lon="13.728261" lat="51.060978"><ele>109.0</ele></trkpt>
   <trkpt lon="13.726335" lat="51.061726"><ele>110.5</ele></trkpt>
   <trkpt lon="13.725617" lat="51.062000"><ele>110.25</ele></trkpt>
   <trkpt lon="13.723548" lat="51.062810"><ele>109.25</ele></trkpt>
   <trkpt lon="13.723382" lat="51.062874"><ele>110.0</ele></trkpt>
   <trkpt lon="13.723298" lat="51.062907"><ele>110.0</ele></trkpt>
   <trkpt lon="13.722520" lat="51.063203"><ele>109.75</ele></trkpt>
   <trkpt lon="13.722474" lat="51.063222"><ele>109.5</ele></trkpt>
   <trkpt lon="13.722208" lat="51.063330"><ele>109.0</ele></trkpt>
   <trkpt lon="13.721911" lat="51.063452"><ele>110.25</ele></trkpt>
   <trkpt lon="13.721484" lat="51.063625"><ele>109.5</ele></trkpt>
   <trkpt lon="13.720775" lat="51.063899"><ele>109.25</ele></trkpt>
   <trkpt lon="13.719251" lat="51.064501"><ele>109.0</ele></trkpt>
   <trkpt lon="13.718929" lat="51.064615"><ele>110.0</ele></trkpt>
   <trkpt lon="13.718797" lat="51.064680"><ele>109.25</ele></trkpt>
   <trkpt lon="13.718643" lat="51.064767"><ele>108.5</ele></trkpt>
   <trkpt lon="13.718544" lat="51.064797"><ele>109.0</ele></trkpt>
   <trkpt lon="13.718018" lat="51.064950"><ele>110.0</ele></trkpt>
   <trkpt lon="13.716750" lat="51.065320"><ele>108.75</ele></trkpt>
   <trkpt lon="13.716508" lat="51.065386"><ele>108.75</ele></trkpt>
   <trkpt lon="13.716283" lat="51.065465"><ele>109.0</ele></trkpt>
   <trkpt lon="13.715972" lat="51.065541"><ele>108.0</ele></trkpt>
   <trkpt lon="13.715905" lat="51.065556"><ele>108.0</ele></trkpt>
   <trkpt lon="13.715661" lat="51.065588"><ele>108.5</ele></trkpt>
   <trkpt lon="13.715351" lat="51.065616"><ele>108.75</ele></trkpt>
   <trkpt lon="13.714144" lat="51.065770"><ele>108.25</ele></trkpt>
   <trkpt lon="13.713467" lat="51.065846"><ele>108.25</ele></trkpt>
   <trkpt lon="13.711336" lat="51.065989"><ele>108.75</ele></trkpt>
   <trkpt lon="13.710160" lat="51.066030"><ele>108.5</ele></trkpt>
   <trkpt lon="13.709347" lat="51.066072"><ele>108.25</ele></trkpt>
   <trkpt lon="13.708546" lat="51.066125"><ele>108.0</ele></trkpt>
   <trkpt lon="13.706579" lat="51.066119"><ele>107.75</ele></trkpt>
   <trkpt lon="13.705455" lat="51.066072"><ele>107.5</ele></trkpt>
   <trkpt lon="13.703149" lat="51.065816"><ele>108.0</ele></trkpt>
   <trkpt lon="13.701645" lat="51.065554"><ele>107.75</ele></trkpt>
   <trkpt lon="13.700980" lat="51.065371"><ele>109.25</ele></trkpt>
   <trkpt lon="13.700160" lat="51.065110"><ele>109.75</ele></trkpt>
   <trkpt lon="13.699465" lat="51.064850"><ele>109.75</ele></trkpt>
   <trkpt lon="13.699371" lat="51.064785"><ele>110.5</ele></trkpt>
   <trkpt lon="13.699286" lat="51.064676"><ele>110.0</ele></trkpt>
   <trkpt lon="13.699198" lat="51.064643"><ele>108.75</ele></trkpt>
   <trkpt lon="13.698124" lat="51.064334"><ele>106.0</ele></trkpt>
   <trkpt lon="13.698013" lat="51.064302"><ele>107.0</ele></trkpt>
   <trkpt lon="13.697815" lat="51.064292"><ele>107.25</ele></trkpt>
   <trkpt lon="13.697674" lat="51.064248"><ele>108.5</ele></trkpt>
   <trkpt lon="13.697331" lat="51.064160"><ele>110.25</ele></trkpt>
   <trkpt lon="13.697204" lat="51.064162"><ele>110.0</ele></trkpt>
   <trkpt lon="13.696987" lat="51.064154"><ele>110.0</ele></trkpt>
   <trkpt lon="13.696714" lat="51.064110"><ele>109.5</ele></trkpt>
   <trkpt lon="13.696001" lat="51.063971"><ele>109.25</ele></trkpt>
   <trkpt lon="13.695669" lat="51.063868"><ele>110.0</ele></trkpt>
   <trkpt lon="13.695011" lat="51.063718"><ele>109.0</ele></trkpt>
   <trkpt lon="13.694679" lat="51.063659"><ele>109.5</ele></trkpt>
   <trkpt lon="13.694562" lat="51.063596"><ele>110.0</ele></trkpt>
   <trkpt lon="13.694446" lat="51.063565"><ele>110.0</ele></trkpt>
   <trkpt lon="13.694260" lat="51.063538"><ele>109.5</ele></trkpt>
   <trkpt lon="13.694104" lat="51.063472"><ele>109.25</ele></trkpt>
   <trkpt lon="13.694063" lat="51.063465"><ele>109.25</ele></trkpt>
   <trkpt lon="13.693976" lat="51.063463"><ele>109.0</ele></trkpt>
   <trkpt lon="13.693834" lat="51.063421"><ele>109.25</ele></trkpt>
   <trkpt lon="13.693765" lat="51.063418"><ele>109.25</ele></trkpt>
   <trkpt lon="13.693622" lat="51.063378"><ele>109.5</ele></trkpt>
   <trkpt lon="13.693535" lat="51.063371"><ele>109.5</ele></trkpt>
   <trkpt lon="13.693283" lat="51.063316"><ele>109.75</ele></trkpt>
   <trkpt lon="13.692645" lat="51.063162"><ele>110.0</ele></trkpt>
   <trkpt lon="13.692607" lat="51.063186"><ele>109.75</ele></trkpt>
   <trkpt lon="13.692540" lat="51.063195"><ele>109.5</ele></trkpt>
   <trkpt lon="13.692489" lat="51.063192"><ele>109.5</ele></trkpt>
   <trkpt lon="13.692346" lat="51.063145"><ele>110.0</ele></trkpt>
   <trkpt lon="13.692296" lat="51.063182"><ele>109.5</ele></trkpt>
   <trkpt lon="13.692217" lat="51.063228"><ele>109.0</ele></trkpt>
   <trkpt lon="13.692121" lat="51.063241"><ele>108.75</ele></trkpt>
   <trkpt lon="13.691310" lat="51.063225"><ele>108.5</ele></trkpt>
   <trkpt lon="13.691131" lat="51.063231"><ele>108.25</ele></trkpt>
   <trkpt lon="13.690967" lat="51.063257"><ele>108.0</ele></trkpt>
   <trkpt lon="13.690768" lat="51.063297"><ele>107.25</ele></trkpt>
   <trkpt lon="13.690576" lat="51.063345"><ele>106.75</ele></trkpt>
   <trkpt lon="13.690457" lat="51.063387"><ele>106.75</ele></trkpt>
   <trkpt lon="13.690305" lat="51.063414"><ele>106.5</ele></trkpt>
   <trkpt lon="13.690268" lat="51.063415"><ele>106.5</ele></trkpt>
   <trkpt lon="13.688539" lat="51.063341"><ele>105.75</ele></trkpt>
   <trkpt lon="13.687966" lat="51.063290"><ele>106.25</ele></trkpt>
   <trkpt lon="13.687703" lat="51.063245"><ele>106.5</ele></trkpt>
   <trkpt lon="13.687529" lat="51.063181"><ele>107.0</ele></trkpt>
   <trkpt lon="13.687388" lat="51.063085"><ele>107.25</ele></trkpt>
   <trkpt lon="13.687231" lat="51.062971"><ele>105.75</ele></trkpt>
   <trkpt lon="13.686910" lat="51.062841"><ele>106.25</ele></trkpt>
   <trkpt lon="13.686854" lat="51.062831"><ele>106.75</ele></trkpt>
   <trkpt lon="13.686809" lat="51.062847"><ele>106.75</ele></trkpt>
   <trkpt lon="13.686662" lat="51.062974"><ele>106.0</ele></trkpt>
   <trkpt lon="13.686411" lat="51.063003"><ele>107.0</ele></trkpt>
   <trkpt lon="13.686231" lat="51.062998"><ele>107.0</ele></trkpt>
   <trkpt lon="13.685913" lat="51.062948"><ele>106.5</ele></trkpt>
   <trkpt lon="13.685447" lat="51.062934"><ele>106.5</ele></trkpt>
   <trkpt lon="13.684591" lat="51.062908"><ele>107.0</ele></trkpt>
   <trkpt lon="13.684548" lat="51.062906"><ele>107.0</ele></trkpt>
   <trkpt lon="13.684360" lat="51.062908"><ele>107.0</ele></trkpt>
   <trkpt lon="13.684279" lat="51.062909"><ele>107.0</ele></trkpt>
   <trkpt lon="13.684098" lat="51.062911"><ele>107.0</ele></trkpt>
   <trkpt lon="13.683376" lat="51.062930"><ele>107.75</ele></trkpt>
   <trkpt lon="13.682718" lat="51.063037"><ele>107.25</ele></trkpt>
   <trkpt lon="13.682280" lat="51.063159"><ele>106.25</ele></trkpt>
   <trkpt lon="13.681757" lat="51.063405"><ele>107.0</ele></trkpt>
   <trkpt lon="13.681603" lat="51.063464"><ele>107.25</ele></trkpt>
   <trkpt lon="13.681145" lat="51.063613"><ele>106.5</ele></trkpt>
   <trkpt lon="13.680622" lat="51.063801"><ele>108.5</ele></trkpt>
   <trkpt lon="13.679705" lat="51.064221"><ele>108.0</ele></trkpt>
   <trkpt lon="13.678630" lat="51.064778"><ele>108.75</ele></trkpt>
   <trkpt lon="13.677871" lat="51.065218"><ele>108.5</ele></trkpt>
   <trkpt lon="13.676951" lat="51.065843"><ele>106.5</ele></trkpt>
   <trkpt lon="13.676421" lat="51.066246"><ele>107.0</ele></trkpt>
   <trkpt lon="13.675909" lat="51.066655"><ele>106.75</ele></trkpt>
   <trkpt lon="13.675248" lat="51.067278"><ele>106.5</ele></trkpt>
   <trkpt lon="13.674748" lat="51.067798"><ele>106.25</ele></trkpt>
   <trkpt lon="13.674001" lat="51.068620"><ele>106.25</ele></trkpt>
   <trkpt lon="13.673073" lat="51.069596"><ele>107.0</ele></trkpt>
   <trkpt lon="13.671470" lat="51.071314"><ele>106.75</ele></trkpt>
   <trkpt lon="13.671319" lat="51.071463"><ele>107.5</ele></trkpt>
   <trkpt lon="13.671143" lat="51.071780"><ele>106.75</ele></trkpt>
   <trkpt lon="13.670722" lat="51.072336"><ele>107.0</ele></trkpt>
   <trkpt lon="13.670660" lat="51.072408"><ele>107.25</ele></trkpt>
   <trkpt lon="13.670584" lat="51.072681"><ele>107.0</ele></trkpt>
   <trkpt lon="13.670565" lat="51.072922"><ele>106.75</ele></trkpt>
   <trkpt lon="13.670572" lat="51.073099"><ele>106.75</ele></trkpt>
   <trkpt lon="13.670604" lat="51.073167"><ele>106.25</ele></trkpt>
   <trkpt lon="13.670771" lat="51.073517"><ele>105.0</ele></trkpt>
   <trkpt lon="13.670815" lat="51.073654"><ele>105.0</ele></trkpt>
   <trkpt lon="13.670827" lat="51.073768"><ele>105.0</ele></trkpt>
   <trkpt lon="13.670805" lat="51.073869"><ele>105.0</ele></trkpt>
   <trkpt lon="13.670649" lat="51.074079"><ele>105.5</ele></trkpt>
   <trkpt lon="13.670520" lat="51.074190"><ele>105.75</ele></trkpt>
   <trkpt lon="13.670226" lat="51.074532"><ele>105.5</ele></trkpt>
   <trkpt lon="13.669131" lat="51.075433"><ele>106.0</ele></trkpt>
   <trkpt lon="13.668845" lat="51.075748"><ele>106.25</ele></trkpt>
   <trkpt lon="13.668684" lat="51.076119"><ele>106.25</ele></trkpt>
   <trkpt lon="13.668538" lat="51.076295"><ele>106.25</ele></trkpt>
   <trkpt lon="13.668093" lat="51.077397"><ele>105.75</ele></trkpt>
   <trkpt lon="13.667792" lat="51.078032"><ele>105.75</ele></trkpt>
   <trkpt lon="13.667403" lat="51.078593"><ele>106.0</ele></trkpt>
   <trkpt lon="13.667188" lat="51.079037"><ele>106.0</ele></trkpt>
   <trkpt lon="13.666865" lat="51.080061"><ele>105.0</ele></trkpt>
   <trkpt lon="13.666776" lat="51.080219"><ele>105.0</ele></trkpt>
   <trkpt lon="13.666398" lat="51.081065"><ele>105.75</ele></trkpt>
   <trkpt lon="13.665984" lat="51.081823"><ele>105.75</ele></trkpt>
   <trkpt lon="13.665328" lat="51.082979"><ele>105.5</ele></trkpt>
   <trkpt lon="13.664395" lat="51.084508"><ele>105.75</ele></trkpt>
   <trkpt lon="13.663793" lat="51.085349"><ele>105.0</ele></trkpt>
   <trkpt lon="13.663729" lat="51.085418"><ele>105.0</ele></trkpt>
   <trkpt lon="13.663636" lat="51.085461"><ele>105.25</ele></trkpt>
   <trkpt lon="13.663505" lat="51.085499"><ele>105.5</ele></trkpt>
   <trkpt lon="13.663432" lat="51.085492"><ele>105.5</ele></trkpt>
   <trkpt lon="13.663255" lat="51.085432"><ele>106.0</ele></trkpt>
   <trkpt lon="13.663182" lat="51.085428"><ele>106.0</ele></trkpt>
   <trkpt lon="13.663126" lat="51.085449"><ele>106.0</ele></trkpt>
   <trkpt lon="13.663099" lat="51.085503"><ele>105.75</ele></trkpt>
   <trkpt lon="13.663096" lat="51.085742"><ele>106.0</ele></trkpt>
   <trkpt lon="13.662986" lat="51.085933"><ele>106.0</ele></trkpt>
   <trkpt lon="13.662666" lat="51.086302"><ele>106.0</ele></trkpt>
   <trkpt lon="13.662363" lat="51.086581"><ele>106.0</ele></trkpt>
   <trkpt lon="13.661934" lat="51.086920"><ele>106.0</ele></trkpt>
   <trkpt lon="13.661371" lat="51.087322"><ele>106.0</ele></trkpt>
   <trkpt lon="13.660849" lat="51.087669"><ele>106.0</ele></trkpt>
   <trkpt lon="13.659443" lat="51.088476"><ele>106.0</ele></trkpt>
   <trkpt lon="13.658910" lat="51.088875"><ele>105.75</ele></trkpt>
   <trkpt lon="13.658296" lat="51.089537"><ele>106.25</ele></trkpt>
   <trkpt lon="13.658144" lat="51.089706"><ele>106.75</ele></trkpt>
   <trkpt lon="13.658094" lat="51.089762"><ele>107.0</ele></trkpt>
   <trkpt lon="13.658044" lat="51.089864"><ele>106.75</ele></trkpt>
   <trkpt lon="13.658008" lat="51.089953"><ele>106.75</ele></trkpt>
   <trkpt lon="13.657934" lat="51.090251"><ele>107.0</ele></trkpt>
   <trkpt lon="13.657908" lat="51.090309"><ele>106.5</ele></trkpt>
   <trkpt lon="13.657851" lat="51.090358"><ele>106.0</ele></trkpt>
   <trkpt lon="13.657754" lat="51.090403"><ele>105.75</ele></trkpt>
   <trkpt lon="13.657523" lat="51.090494"><ele>106.25</ele></trkpt>
   <trkpt lon="13.655096" lat="51.091328"><ele>104.75</ele></trkpt>
   <trkpt lon="13.653876" lat="51.091688"><ele>105.75</ele></trkpt>
   <trkpt lon="13.653511" lat="51.091778"><ele>104.75</ele></trkpt>
   <trkpt lon="13.653263" lat="51.091811"><ele>105.0</ele></trkpt>
   <trkpt lon="13.652510" lat="51.091802"><ele>106.0</ele></trkpt>
   <trkpt lon="13.652255" lat="51.091805"><ele>105.5</ele></trkpt>
   <trkpt lon="13.650930" lat="51.091883"><ele>105.0</ele></trkpt>
   <trkpt lon="13.650815" lat="51.091867"><ele>105.0</ele></trkpt>
   <trkpt lon="13.650747" lat="51.091845"><ele>105.0</ele></trkpt>
   <trkpt lon="13.650697" lat="51.091808"><ele>105.0</ele></trkpt>
   <trkpt lon="13.650628" lat="51.091728"><ele>105.0</ele></trkpt>
   <trkpt lon="13.650498" lat="51.091531"><ele>104.75</ele></trkpt>
   <trkpt lon="13.650439" lat="51.091469"><ele>105.0</ele></trkpt>
   <trkpt lon="13.650375" lat="51.091446"><ele>105.25</ele></trkpt>
   <trkpt lon="13.650304" lat="51.091435"><ele>105.5</ele></trkpt>
   <trkpt lon="13.650235" lat="51.091432"><ele>105.75</ele></trkpt>
   <trkpt lon="13.650143" lat="51.091435"><ele>106.0</ele></trkpt>
   <trkpt lon="13.649960" lat="51.091466"><ele>106.5</ele></trkpt>
   <trkpt lon="13.649867" lat="51.091490"><ele>106.5</ele></trkpt>
   <trkpt lon="13.649824" lat="51.091521"><ele>106.5</ele></trkpt>
   <trkpt lon="13.649743" lat="51.091601"><ele>106.75</ele></trkpt>
   <trkpt lon="13.649693" lat="51.091626"><ele>107.0</ele></trkpt>
   <trkpt lon="13.649636" lat="51.091636"><ele>107.25</ele></trkpt>
   <trkpt lon="13.649572" lat="51.091635"><ele>107.25</ele></trkpt>
   <trkpt lon="13.649529" lat="51.091628"><ele>107.5</ele></trkpt>
   <trkpt lon="13.649467" lat="51.091605"><ele>107.5</ele></trkpt>
   <trkpt lon="13.649416" lat="51.091577"><ele>107.5</ele></trkpt>
   <trkpt lon="13.649341" lat="51.091538"><ele>107.25</ele></trkpt>
   <trkpt lon="13.649268" lat="51.091486"><ele>107.0</ele></trkpt>
   <trkpt lon="13.649216" lat="51.091445"><ele>107.0</ele></trkpt>
   <trkpt lon="13.649070" lat="51.091321"><ele>106.75</ele></trkpt>
   <trkpt lon="13.648603" lat="51.090787"><ele>106.0</ele></trkpt>
   <trkpt lon="13.648297" lat="51.090957"><ele>106.25</ele></trkpt>
   <trkpt lon="13.648115" lat="51.091030"><ele>106.0</ele></trkpt>
   <trkpt lon="13.647273" lat="51.091348"><ele>106.75</ele></trkpt>
   <trkpt lon="13.646648" lat="51.091547"><ele>106.75</ele></trkpt>
   <trkpt lon="13.646177" lat="51.091697"><ele>107.0</ele></trkpt>
   <trkpt lon="13.645822" lat="51.091814"><ele>106.5</ele></trkpt>
   <trkpt lon="13.645676" lat="51.091900"><ele>106.25</ele></trkpt>
   <trkpt lon="13.645431" lat="51.092160"><ele>106.75</ele></trkpt>
   <trkpt lon="13.645198" lat="51.092376"><ele>107.0</ele></trkpt>
   <trkpt lon="13.644976" lat="51.092504"><ele>107.0</ele></trkpt>
   <trkpt lon="13.644814" lat="51.092557"><ele>106.75</ele></trkpt>
   <trkpt lon="13.644581" lat="51.092626"><ele>107.0</ele></trkpt>
   <trkpt lon="13.644433" lat="51.092685"><ele>107.0</ele></trkpt>
   <trkpt lon="13.644177" lat="51.092786"><ele>107.0</ele></trkpt>
   <trkpt lon="13.643874" lat="51.092931"><ele>107.0</ele></trkpt>
   <trkpt lon="13.643759" lat="51.093013"><ele>107.0</ele></trkpt>
   <trkpt lon="13.643844" lat="51.093263"><ele>107.0</ele></trkpt>
   <trkpt lon="13.643883" lat="51.093460"><ele>106.5</ele></trkpt>
   <trkpt lon="13.643894" lat="51.093643"><ele>106.0</ele></trkpt>
   <trkpt lon="13.643901" lat="51.093784"><ele>106.5</ele></trkpt>
   <trkpt lon="13.643881" lat="51.093891"><ele>107.0</ele></trkpt>
   <trkpt lon="13.643827" lat="51.093964"><ele>107.0</ele></trkpt>
   <trkpt lon="13.643732" lat="51.094017"><ele>107.0</ele></trkpt>
   <trkpt lon="13.643540" lat="51.094097"><ele>107.0</ele></trkpt>
   <trkpt lon="13.643248" lat="51.094218"><ele>107.25</ele></trkpt>
   <trkpt lon="13.642457" lat="51.094568"><ele>107.5</ele></trkpt>
   <trkpt lon="13.642226" lat="51.094691"><ele>107.0</ele></trkpt>
   <trkpt lon="13.641878" lat="51.094808"><ele>106.5</ele></trkpt>
   <trkpt lon="13.641617" lat="51.094863"><ele>106.25</ele></trkpt>
   <trkpt lon="13.641376" lat="51.094896"><ele>106.25</ele></trkpt>
   <trkpt lon="13.640759" lat="51.094895"><ele>105.75</ele></trkpt>
   <trkpt lon="13.640468" lat="51.094925"><ele>106.25</ele></trkpt>
   <trkpt lon="13.640120" lat="51.094980"><ele>106.5</ele></trkpt>
   <trkpt lon="13.639763" lat="51.095082"><ele>106.25</ele></trkpt>
   <trkpt lon="13.638852" lat="51.095468"><ele>105.25</ele></trkpt>
   <trkpt lon="13.638621" lat="51.095537"><ele>105.75</ele></trkpt>
   <trkpt lon="13.638505" lat="51.095592"><ele>106.0</ele></trkpt>
   <trkpt lon="13.638011" lat="51.095865"><ele>107.0</ele></trkpt>
   <trkpt lon="13.637262" lat="51.096319"><ele>106.0</ele></trkpt>
   <trkpt lon="13.636917" lat="51.096455"><ele>105.0</ele></trkpt>
   <trkpt lon="13.636324" lat="51.096635"><ele>105.5</ele></trkpt>
   <trkpt lon="13.635670" lat="51.096846"><ele>105.5</ele></trkpt>
   <trkpt lon="13.634987" lat="51.097187"><ele>105.75</ele></trkpt>
   <trkpt lon="13.634854" lat="51.097250"><ele>105.25</ele></trkpt>
   <trkpt lon="13.634025" lat="51.097605"><ele>105.25</ele></trkpt>
   <trkpt lon="13.631400" lat="51.098715"><ele>105.25</ele></trkpt>
   <trkpt lon="13.631287" lat="51.098749"><ele>105.5</ele></trkpt>
   <trkpt lon="13.628610" lat="51.099359"><ele>105.5</ele></trkpt>
   <trkpt lon="13.628132" lat="51.099444"><ele>105.75</ele></trkpt>
   <trkpt lon="13.627077" lat="51.099568"><ele>105.25</ele></trkpt>
   <trkpt lon="13.626684" lat="51.099588"><ele>105.5</ele></trkpt>
   <trkpt lon="13.623715" lat="51.099505"><ele>105.75</ele></trkpt>
   <trkpt lon="13.623557" lat="51.099505"><ele>105.75</ele></trkpt>
   <trkpt lon="13.623376" lat="51.099523"><ele>105.5</ele></trkpt>
   <trkpt lon="13.623257" lat="51.099551"><ele>105.5</ele></trkpt>
   <trkpt lon="13.622633" lat="51.099710"><ele>105.75</ele></trkpt>
   <trkpt lon="13.622145" lat="51.099785"><ele>105.5</ele></trkpt>
   <trkpt lon="13.622069" lat="51.099781"><ele>105.25</ele></trkpt>
   <trkpt lon="13.622036" lat="51.099746"><ele>105.25</ele></trkpt>
   <trkpt lon="13.621848" lat="51.099094"><ele>106.0</ele></trkpt>
   <trkpt lon="13.621226" lat="51.096807"><ele>106.0</ele></trkpt>
   <trkpt lon="13.618713" lat="51.096832"><ele>105.75</ele></trkpt>
   <trkpt lon="13.616903" lat="51.096879"><ele>105.0</ele></trkpt>
   <trkpt lon="13.616713" lat="51.096884"><ele>105.75</ele></trkpt>
   <trkpt lon="13.615314" lat="51.096928"><ele>105.0</ele></trkpt>
   <trkpt lon="13.614555" lat="51.096898"><ele>105.0</ele></trkpt>
   <trkpt lon="13.613893" lat="51.096812"><ele>104.75</ele></trkpt>
   <trkpt lon="13.613549" lat="51.096696"><ele>104.75</ele></trkpt>
   <trkpt lon="13.611750" lat="51.095549"><ele>105.0</ele></trkpt>
   <trkpt lon="13.611533" lat="51.095439"><ele>105.5</ele></trkpt>
   <trkpt lon="13.611358" lat="51.095397"><ele>106.0</ele></trkpt>
   <trkpt lon="13.610194" lat="51.095195"><ele>106.5</ele></trkpt>
   <trkpt lon="13.609921" lat="51.095176"><ele>105.75</ele></trkpt>
   <trkpt lon="13.607887" lat="51.094663"><ele>106.5</ele></trkpt>
   <trkpt lon="13.607485" lat="51.094472"><ele>106.75</ele></trkpt>
   <trkpt lon="13.607334" lat="51.094337"><ele>107.0</ele></trkpt>
   <trkpt lon="13.607178" lat="51.094402"><ele>107.0</ele></trkpt>
   <trkpt lon="13.607074" lat="51.094453"><ele>106.75</ele></trkpt>
   <trkpt lon="13.606569" lat="51.094745"><ele>104.0</ele></trkpt>
   <trkpt lon="13.606293" lat="51.094820"><ele>105.75</ele></trkpt>
   <trkpt lon="13.606047" lat="51.094834"><ele>107.75</ele></trkpt>
   <trkpt lon="13.605602" lat="51.094770"><ele>105.25</ele></trkpt>
   <trkpt lon="13.605352" lat="51.094733"><ele>104.25</ele></trkpt>
   <trkpt lon="13.605196" lat="51.094709"><ele>104.25</ele></trkpt>
   <trkpt lon="13.605161" lat="51.094702"><ele>104.25</ele></trkpt>
   <trkpt lon="13.605125" lat="51.094770"><ele>104.25</ele></trkpt>
   <trkpt lon="13.605062" lat="51.094828"><ele>104.0</ele></trkpt>
   <trkpt lon="13.604971" lat="51.094880"><ele>103.75</ele></trkpt>
   <trkpt lon="13.604834" lat="51.094938"><ele>103.25</ele></trkpt>
   <trkpt lon="13.604756" lat="51.094963"><ele>103.25</ele></trkpt>
   <trkpt lon="13.604669" lat="51.094984"><ele>103.0</ele></trkpt>
   <trkpt lon="13.604593" lat="51.094994"><ele>103.0</ele></trkpt>
   <trkpt lon="13.604493" lat="51.095003"><ele>103.0</ele></trkpt>
   <trkpt lon="13.604298" lat="51.095005"><ele>103.0</ele></trkpt>
   <trkpt lon="13.604092" lat="51.095023"><ele>103.0</ele></trkpt>
   <trkpt lon="13.603805" lat="51.095068"><ele>103.75</ele></trkpt>
   <trkpt lon="13.603582" lat="51.095115"><ele>103.5</ele></trkpt>
   <trkpt lon="13.603350" lat="51.095175"><ele>102.75</ele></trkpt>
   <trkpt lon="13.602949" lat="51.095316"><ele>103.25</ele></trkpt>
   <trkpt lon="13.602656" lat="51.095447"><ele>103.0</ele></trkpt>
   <trkpt lon="13.602188" lat="51.095695"><ele>102.5</ele></trkpt>
   <trkpt lon="13.602090" lat="51.095719"><ele>102.75</ele></trkpt>
   <trkpt lon="13.601988" lat="51.095726"><ele>103.25</ele></trkpt>
   <trkpt lon="13.601860" lat="51.095719"><ele>104.25</ele></trkpt>
   <trkpt lon="13.601718" lat="51.095733"><ele>105.0</ele></trkpt>
   <trkpt lon="13.601576" lat="51.095763"><ele>105.25</ele></trkpt>
   <trkpt lon="13.601394" lat="51.095826"><ele>105.0</ele></trkpt>
   <trkpt lon="13.599986" lat="51.096396"><ele>104.75</ele></trkpt>
   <trkpt lon="13.599785" lat="51.096506"><ele>104.25</ele></trkpt>
   <trkpt lon="13.598486" lat="51.097307"><ele>105.0</ele></trkpt>
   <trkpt lon="13.598286" lat="51.097458"><ele>106.0</ele></trkpt>
   <trkpt lon="13.598146" lat="51.097579"><ele>106.0</ele></trkpt>
   <trkpt lon="13.598030" lat="51.097696"><ele>106.25</ele></trkpt>
   <trkpt lon="13.598002" lat="51.097735"><ele>106.25</ele></trkpt>
   <trkpt lon="13.597980" lat="51.097834"><ele>105.0</ele></trkpt>
   <trkpt lon="13.597934" lat="51.097874"><ele>104.5</ele></trkpt>
   <trkpt lon="13.597856" lat="51.097916"><ele>104.25</ele></trkpt>
   <trkpt lon="13.597760" lat="51.097964"><ele>104.25</ele></trkpt>
   <trkpt lon="13.597643" lat="51.098026"><ele>105.0</ele></trkpt>
   <trkpt lon="13.597127" lat="51.098251"><ele>105.25</ele></trkpt>
   <trkpt lon="13.597071" lat="51.098289"><ele>105.25</ele></trkpt>
   <trkpt lon="13.596979" lat="51.098385"><ele>105.25</ele></trkpt>
   <trkpt lon="13.596858" lat="51.098551"><ele>104.5</ele></trkpt>
   <trkpt lon="13.596822" lat="51.098587"><ele>104.5</ele></trkpt>
   <trkpt lon="13.596783" lat="51.098603"><ele>104.5</ele></trkpt>
   <trkpt lon="13.596747" lat="51.098610"><ele>104.5</ele></trkpt>
   <trkpt lon="13.596697" lat="51.098609"><ele>104.75</ele></trkpt>
   <trkpt lon="13.596631" lat="51.098590"><ele>105.0</ele></trkpt>
   <trkpt lon="13.596479" lat="51.098507"><ele>105.25</ele></trkpt>
   <trkpt lon="13.596151" lat="51.098376"><ele>105.75</ele></trkpt>
   <trkpt lon="13.595868" lat="51.098300"><ele>105.25</ele></trkpt>
   <trkpt lon="13.595566" lat="51.098233"><ele>105.25</ele></trkpt>
   <trkpt lon="13.595061" lat="51.098135"><ele>106.0</ele></trkpt>
   <trkpt lon="13.595016" lat="51.098132"><ele>105.75</ele></trkpt>
   <trkpt lon="13.594949" lat="51.098137"><ele>105.5</ele></trkpt>
   <trkpt lon="13.594313" lat="51.098306"><ele>104.25</ele></trkpt>
   <trkpt lon="13.593921" lat="51.098464"><ele>103.75</ele></trkpt>
   <trkpt lon="13.593554" lat="51.098632"><ele>104.0</ele></trkpt>
   <trkpt lon="13.593461" lat="51.098699"><ele>104.0</ele></trkpt>
   <trkpt lon="13.593383" lat="51.098768"><ele>103.75</ele></trkpt>
   <trkpt lon="13.593332" lat="51.098824"><ele>103.25</ele></trkpt>
   <trkpt lon="13.593291" lat="51.098847"><ele>103.25</ele></trkpt>
   <trkpt lon="13.591490" lat="51.099474"><ele>104.5</ele></trkpt>
   <trkpt lon="13.591334" lat="51.099544"><ele>105.0</ele></trkpt>
   <trkpt lon="13.591202" lat="51.099645"><ele>105.5</ele></trkpt>
   <trkpt lon="13.591166" lat="51.099665"><ele>105.75</ele></trkpt>
   <trkpt lon="13.591121" lat="51.099681"><ele>105.75</ele></trkpt>
   <trkpt lon="13.591084" lat="51.099686"><ele>106.0</ele></trkpt>
   <trkpt lon="13.591043" lat="51.099684"><ele>106.0</ele></trkpt>
   <trkpt lon="13.590993" lat="51.099662"><ele>106.0</ele></trkpt>
   <trkpt lon="13.590805" lat="51.099470"><ele>107.5</ele></trkpt>
   <trkpt lon="13.590651" lat="51.099338"><ele>108.0</ele></trkpt>
   <trkpt lon="13.590486" lat="51.099209"><ele>109.5</ele></trkpt>
   <trkpt lon="13.590425" lat="51.099171"><ele>109.75</ele></trkpt>
   <trkpt lon="13.590357" lat="51.099150"><ele>110.0</ele></trkpt>
   <trkpt lon="13.590259" lat="51.099178"><ele>109.75</ele></trkpt>
   <trkpt lon="13.589940" lat="51.099289"><ele>108.75</ele></trkpt>
   <trkpt lon="13.589174" lat="51.099579"><ele>108.5</ele></trkpt>
   <trkpt lon="13.588712" lat="51.099798"><ele>107.75</ele></trkpt>
   <trkpt lon="13.588580" lat="51.099844"><ele>107.75</ele></trkpt>
   <trkpt lon="13.588270" lat="51.099884"><ele>108.25</ele></trkpt>
   <trkpt lon="13.588117" lat="51.099955"><ele>107.5</ele></trkpt>
   <trkpt lon="13.587988" lat="51.100077"><ele>107.25</ele></trkpt>
   <trkpt lon="13.587850" lat="51.100167"><ele>107.25</ele></trkpt>
   <trkpt lon="13.587615" lat="51.100279"><ele>106.5</ele></trkpt>
   <trkpt lon="13.587026" lat="51.100532"><ele>107.5</ele></trkpt>
   <trkpt lon="13.586861" lat="51.100617"><ele>108.0</ele></trkpt>
   <trkpt lon="13.586803" lat="51.100689"><ele>107.75</ele></trkpt>
   <trkpt lon="13.586790" lat="51.100747"><ele>107.25</ele></trkpt>
   <trkpt lon="13.586804" lat="51.100841"><ele>106.75</ele></trkpt>
   <trkpt lon="13.586768" lat="51.100879"><ele>106.75</ele></trkpt>
   <trkpt lon="13.586617" lat="51.100963"><ele>106.5</ele></trkpt>
   <trkpt lon="13.586584" lat="51.100993"><ele>106.5</ele></trkpt>
   <trkpt lon="13.586568" lat="51.101034"><ele>106.25</ele></trkpt>
   <trkpt lon="13.586580" lat="51.101074"><ele>106.0</ele></trkpt>
   <trkpt lon="13.586706" lat="51.101188"><ele>106.0</ele></trkpt>
   <trkpt lon="13.586703" lat="51.101224"><ele>106.0</ele></trkpt>
   <trkpt lon="13.586671" lat="51.101266"><ele>106.0</ele></trkpt>
   <trkpt lon="13.586598" lat="51.101307"><ele>106.0</ele></trkpt>
   <trkpt lon="13.585963" lat="51.101577"><ele>106.0</ele></trkpt>
   <trkpt lon="13.585116" lat="51.101940"><ele>105.0</ele></trkpt>
   <trkpt lon="13.584774" lat="51.102073"><ele>105.25</ele></trkpt>
   <trkpt lon="13.584493" lat="51.102100"><ele>105.75</ele></trkpt>
   <trkpt lon="13.584362" lat="51.102127"><ele>106.0</ele></trkpt>
   <trkpt lon="13.583899" lat="51.102328"><ele>106.0</ele></trkpt>
   <trkpt lon="13.583621" lat="51.102544"><ele>106.0</ele></trkpt>
   <trkpt lon="13.583140" lat="51.102884"><ele>106.5</ele></trkpt>
   <trkpt lon="13.582741" lat="51.103044"><ele>108.0</ele></trkpt>
   <trkpt lon="13.582313" lat="51.103191"><ele>109.0</ele></trkpt>
   <trkpt lon="13.581389" lat="51.103500"><ele>109.0</ele></trkpt>
   <trkpt lon="13.581381" lat="51.103503"><ele>108.75</ele></trkpt>
   <trkpt lon="13.581226" lat="51.103487"><ele>108.25</ele></trkpt>
   <trkpt lon="13.581046" lat="51.103412"><ele>108.25</ele></trkpt>
   <trkpt lon="13.580977" lat="51.103358"><ele>108.25</ele></trkpt>
   <trkpt lon="13.580755" lat="51.103445"><ele>107.5</ele></trkpt>
   <trkpt lon="13.580510" lat="51.103588"><ele>107.0</ele></trkpt>
   <trkpt lon="13.579053" lat="51.104352"><ele>106.0</ele></trkpt>
   <trkpt lon="13.578325" lat="51.104744"><ele>105.75</ele></trkpt>
   <trkpt lon="13.578070" lat="51.104898"><ele>105.0</ele></trkpt>
   <trkpt lon="13.577600" lat="51.105198"><ele>105.0</ele></trkpt>
   <trkpt lon="13.577102" lat="51.105531"><ele>105.0</ele></trkpt>
   <trkpt lon="13.576585" lat="51.105857"><ele>105.0</ele></trkpt>
   <trkpt lon="13.576071" lat="51.106144"><ele>104.0</ele></trkpt>
   <trkpt lon="13.575650" lat="51.106408"><ele>104.25</ele></trkpt>
   <trkpt lon="13.575001" lat="51.106879"><ele>104.75</ele></trkpt>
   <trkpt lon="13.574731" lat="51.107084"><ele>104.0</ele></trkpt>
   <trkpt lon="13.574476" lat="51.107304"><ele>104.25</ele></trkpt>
   <trkpt lon="13.573881" lat="51.107892"><ele>104.25</ele></trkpt>
   <trkpt lon="13.573504" lat="51.108285"><ele>104.0</ele></trkpt>
   <trkpt lon="13.573165" lat="51.108656"><ele>104.25</ele></trkpt>
   <trkpt lon="13.572806" lat="51.109006"><ele>104.5</ele></trkpt>
   <trkpt lon="13.571794" lat="51.109612"><ele>104.0</ele></trkpt>
   <trkpt lon="13.571595" lat="51.109740"><ele>104.0</ele></trkpt>
   <trkpt lon="13.571279" lat="51.109869"><ele>104.25</ele></trkpt>
   <trkpt lon="13.571343" lat="51.109955"><ele>104.5</ele></trkpt>
   <trkpt lon="13.571440" lat="51.110022"><ele>104.5</ele></trkpt>
   <trkpt lon="13.571985" lat="51.110322"><ele>103.5</ele></trkpt>
   <trkpt lon="13.572077" lat="51.110352"><ele>103.25</ele></trkpt>
   <trkpt lon="13.572236" lat="51.110376"><ele>103.25</ele></trkpt>
   <trkpt lon="13.572272" lat="51.110395"><ele>103.0</ele></trkpt>
   <trkpt lon="13.572292" lat="51.110422"><ele>103.0</ele></trkpt>
   <trkpt lon="13.572303" lat="51.110472"><ele>102.75</ele></trkpt>
   <trkpt lon="13.572253" lat="51.110513"><ele>102.25</ele></trkpt>
   <trkpt lon="13.572038" lat="51.110659"><ele>102.5</ele></trkpt>
   <trkpt lon="13.571996" lat="51.110688"><ele>102.75</ele></trkpt>
   <trkpt lon="13.571986" lat="51.110724"><ele>103.0</ele></trkpt>
   <trkpt lon="13.571994" lat="51.110754"><ele>103.25</ele></trkpt>
   <trkpt lon="13.572013" lat="51.110782"><ele>103.5</ele></trkpt>
   <trkpt lon="13.572043" lat="51.110801"><ele>103.75</ele></trkpt>
   <trkpt lon="13.572186" lat="51.110848"><ele>104.0</ele></trkpt>
   <trkpt lon="13.572469" lat="51.111078"><ele>103.5</ele></trkpt>
   <trkpt lon="13.572501" lat="51.111168"><ele>103.5</ele></trkpt>
   <trkpt lon="13.572494" lat="51.111211"><ele>103.25</ele></trkpt>
   <trkpt lon="13.572472" lat="51.111253"><ele>103.0</ele></trkpt>
   <trkpt lon="13.569814" lat="51.112979"><ele>102.75</ele></trkpt>
   <trkpt lon="13.569725" lat="51.113010"><ele>102.75</ele></trkpt>
   <trkpt lon="13.569622" lat="51.113036"><ele>103.0</ele></trkpt>
   <trkpt lon="13.569490" lat="51.113047"><ele>102.75</ele></trkpt>
   <trkpt lon="13.569307" lat="51.113045"><ele>103.0</ele></trkpt>
   <trkpt lon="13.569247" lat="51.113056"><ele>102.75</ele></trkpt>
   <trkpt lon="13.569209" lat="51.113072"><ele>102.75</ele></trkpt>
   <trkpt lon="13.569189" lat="51.113105"><ele>102.75</ele></trkpt>
   <trkpt lon="13.569131" lat="51.113266"><ele>103.0</ele></trkpt>
   <trkpt lon="13.569019" lat="51.113422"><ele>102.75</ele></trkpt>
   <trkpt lon="13.568861" lat="51.113527"><ele>103.25</ele></trkpt>
   <trkpt lon="13.568589" lat="51.113685"><ele>103.0</ele></trkpt>
   <trkpt lon="13.568388" lat="51.113787"><ele>103.5</ele></trkpt>
   <trkpt lon="13.567716" lat="51.114103"><ele>103.25</ele></trkpt>
   <trkpt lon="13.566509" lat="51.114613"><ele>102.25</ele></trkpt>
   <trkpt lon="13.565936" lat="51.114801"><ele>102.75</ele></trkpt>
   <trkpt lon="13.564585" lat="51.115197"><ele>101.75</ele></trkpt>
   <trkpt lon="13.562824" lat="51.115595"><ele>103.0</ele></trkpt>
   <trkpt lon="13.561861" lat="51.115811"><ele>103.25</ele></trkpt>
   <trkpt lon="13.561532" lat="51.115892"><ele>102.5</ele></trkpt>
   <trkpt lon="13.561103" lat="51.116017"><ele>101.5</ele></trkpt>
   <trkpt lon="13.560858" lat="51.116062"><ele>102.75</ele></trkpt>
   <trkpt lon="13.560753" lat="51.116075"><ele>103.0</ele></trkpt>
   <trkpt lon="13.560587" lat="51.116076"><ele>103.0</ele></trkpt>
   <trkpt lon="13.560421" lat="51.116045"><ele>103.0</ele></trkpt>
   <trkpt lon="13.560132" lat="51.115888"><ele>103.75</ele></trkpt>
   <trkpt lon="13.560047" lat="51.115871"><ele>104.25</ele></trkpt>
   <trkpt lon="13.559946" lat="51.115877"><ele>104.75</ele></trkpt>
   <trkpt lon="13.559441" lat="51.116037"><ele>105.25</ele></trkpt>
   <trkpt lon="13.559315" lat="51.116090"><ele>105.0</ele></trkpt>
   <trkpt lon="13.559037" lat="51.116138"><ele>104.25</ele></trkpt>
   <trkpt lon="13.558982" lat="51.116146"><ele>104.0</ele></trkpt>
   <trkpt lon="13.558557" lat="51.116270"><ele>104.5</ele></trkpt>
   <trkpt lon="13.558346" lat="51.116418"><ele>104.75</ele></trkpt>
   <trkpt lon="13.558281" lat="51.116453"><ele>104.75</ele></trkpt>
   <trkpt lon="13.558145" lat="51.116505"><ele>104.5</ele></trkpt>
   <trkpt lon="13.557950" lat="51.116586"><ele>104.5</ele></trkpt>
   <trkpt lon="13.557980" lat="51.116623"><ele>104.25</ele></trkpt>
   <trkpt lon="13.558053" lat="51.116733"><ele>104.0</ele></trkpt>
   <trkpt lon="13.558092" lat="51.116816"><ele>104.0</ele></trkpt>
   <trkpt lon="13.558089" lat="51.116893"><ele>104.0</ele></trkpt>
   <trkpt lon="13.557675" lat="51.117043"><ele>103.5</ele></trkpt>
   <trkpt lon="13.556936" lat="51.117223"><ele>103.0</ele></trkpt>
   <trkpt lon="13.555786" lat="51.117419"><ele>103.75</ele></trkpt>
   <trkpt lon="13.555353" lat="51.117481"><ele>104.0</ele></trkpt>
   <trkpt lon="13.555024" lat="51.117544"><ele>104.5</ele></trkpt>
   <trkpt lon="13.553927" lat="51.117829"><ele>105.0</ele></trkpt>
   <trkpt lon="13.553530" lat="51.117934"><ele>104.75</ele></trkpt>
   <trkpt lon="13.551735" lat="51.118370"><ele>104.5</ele></trkpt>
   <trkpt lon="13.550907" lat="51.118561"><ele>104.25</ele></trkpt>
   <trkpt lon="13.549160" lat="51.118976"><ele>103.25</ele></trkpt>
   <trkpt lon="13.548010" lat="51.119270"><ele>103.25</ele></trkpt>
   <trkpt lon="13.547229" lat="51.119486"><ele>103.5</ele></trkpt>
   <trkpt lon="13.545853" lat="51.119836"><ele>103.0</ele></trkpt>
   <trkpt lon="13.544315" lat="51.120345"><ele>103.25</ele></trkpt>
   <trkpt lon="13.544008" lat="51.120440"><ele>103.0</ele></trkpt>
   <trkpt lon="13.543769" lat="51.120537"><ele>103.25</ele></trkpt>
   <trkpt lon="13.543027" lat="51.120913"><ele>102.5</ele></trkpt>
   <trkpt lon="13.542743" lat="51.121037"><ele>102.5</ele></trkpt>
   <trkpt lon="13.542360" lat="51.121189"><ele>102.25</ele></trkpt>
   <trkpt lon="13.541434" lat="51.121521"><ele>102.0</ele></trkpt>
   <trkpt lon="13.540055" lat="51.122111"><ele>101.75</ele></trkpt>
   <trkpt lon="13.539846" lat="51.122179"><ele>102.5</ele></trkpt>
   <trkpt lon="13.539619" lat="51.122228"><ele>102.75</ele></trkpt>
   <trkpt lon="13.539498" lat="51.122262"><ele>102.5</ele></trkpt>
   <trkpt lon="13.539380" lat="51.122304"><ele>102.25</ele></trkpt>
   <trkpt lon="13.539001" lat="51.122467"><ele>102.0</ele></trkpt>
   <trkpt lon="13.538148" lat="51.122791"><ele>102.5</ele></trkpt>
   <trkpt lon="13.537835" lat="51.122926"><ele>102.0</ele></trkpt>
   <trkpt lon="13.537486" lat="51.123101"><ele>102.5</ele></trkpt>
   <trkpt lon="13.536448" lat="51.123667"><ele>102.5</ele></trkpt>
   <trkpt lon="13.536331" lat="51.123729"><ele>102.5</ele></trkpt>
   <trkpt lon="13.536215" lat="51.123790"><ele>102.75</ele></trkpt>
   <trkpt lon="13.534561" lat="51.124682"><ele>102.5</ele></trkpt>
   <trkpt lon="13.532516" lat="51.125888"><ele>102.75</ele></trkpt>
   <trkpt lon="13.532308" lat="51.126024"><ele>102.75</ele></trkpt>
   <trkpt lon="13.532172" lat="51.126137"><ele>103.0</ele></trkpt>
   <trkpt lon="13.531828" lat="51.126443"><ele>103.5</ele></trkpt>
   <trkpt lon="13.531779" lat="51.126487"><ele>103.5</ele></trkpt>
   <trkpt lon="13.531702" lat="51.126537"><ele>103.25</ele></trkpt>
   <trkpt lon="13.531592" lat="51.126615"><ele>103.25</ele></trkpt>
   <trkpt lon="13.531280" lat="51.126852"><ele>103.5</ele></trkpt>
   <trkpt lon="13.530983" lat="51.127075"><ele>103.5</ele></trkpt>
   <trkpt lon="13.530855" lat="51.127164"><ele>103.75</ele></trkpt>
   <trkpt lon="13.530766" lat="51.127216"><ele>104.0</ele></trkpt>
   <trkpt lon="13.530746" lat="51.127251"><ele>104.0</ele></trkpt>
   <trkpt lon="13.530650" lat="51.127354"><ele>103.75</ele></trkpt>
   <trkpt lon="13.529933" lat="51.128050"><ele>103.0</ele></trkpt>
   <trkpt lon="13.529889" lat="51.128084"><ele>103.0</ele></trkpt>
   <trkpt lon="13.529828" lat="51.128100"><ele>102.75</ele></trkpt>
   <trkpt lon="13.529757" lat="51.128097"><ele>103.0</ele></trkpt>
   <trkpt lon="13.529258" lat="51.127845"><ele>103.75</ele></trkpt>
   <trkpt lon="13.529143" lat="51.127805"><ele>103.75</ele></trkpt>
   <trkpt lon="13.529042" lat="51.127800"><ele>104.25</ele></trkpt>
   <trkpt lon="13.528949" lat="51.127818"><ele>104.5</ele></trkpt>
   <trkpt lon="13.528872" lat="51.127848"><ele>104.5</ele></trkpt>
   <trkpt lon="13.526844" lat="51.129074"><ele>103.25</ele></trkpt>
   <trkpt lon="13.525523" lat="51.129807"><ele>103.0</ele></trkpt>
   <trkpt lon="13.522626" lat="51.131047"><ele>103.75</ele></trkpt>
   <trkpt lon="13.522424" lat="51.131093"><ele>103.5</ele></trkpt>
   <trkpt lon="13.521591" lat="51.131230"><ele>104.25</ele></trkpt>
   <trkpt lon="13.521367" lat="51.131287"><ele>104.5</ele></trkpt>
   <trkpt lon="13.519953" lat="51.131938"><ele>103.25</ele></trkpt>
   <trkpt lon="13.519578" lat="51.132081"><ele>104.25</ele></trkpt>
   <trkpt lon="13.518903" lat="51.132212"><ele>103.0</ele></trkpt>
   <trkpt lon="13.518357" lat="51.132215"><ele>103.0</ele></trkpt>
   <trkpt lon="13.518172" lat="51.132230"><ele>103.5</ele></trkpt>
   <trkpt lon="13.517829" lat="51.132297"><ele>103.5</ele></trkpt>
   <trkpt lon="13.515830" lat="51.132576"><ele>103.0</ele></trkpt>
   <trkpt lon="13.515307" lat="51.132673"><ele>103.25</ele></trkpt>
   <trkpt lon="13.514308" lat="51.132966"><ele>102.75</ele></trkpt>
   <trkpt lon="13.513712" lat="51.133131"><ele>102.25</ele></trkpt>
   <trkpt lon="13.513264" lat="51.133214"><ele>103.25</ele></trkpt>
   <trkpt lon="13.513056" lat="51.133282"><ele>102.5</ele></trkpt>
   <trkpt lon="13.511123" lat="51.133987"><ele>102.25</ele></trkpt>
   <trkpt lon="13.510899" lat="51.134031"><ele>102.5</ele></trkpt>
   <trkpt lon="13.510460" lat="51.134026"><ele>104.5</ele></trkpt>
   <trkpt lon="13.510219" lat="51.134066"><ele>105.25</ele></trkpt>
   <trkpt lon="13.509724" lat="51.134186"><ele>105.75</ele></trkpt>
   <trkpt lon="13.509078" lat="51.134386"><ele>105.0</ele></trkpt>
   <trkpt lon="13.508275" lat="51.134705"><ele>104.5</ele></trkpt>
   <trkpt lon="13.507050" lat="51.135233"><ele>104.25</ele></trkpt>
   <trkpt lon="13.505797" lat="51.135898"><ele>102.75</ele></trkpt>
   <trkpt lon="13.504701" lat="51.136469"><ele>103.25</ele></trkpt>
   <trkpt lon="13.504372" lat="51.136632"><ele>103.75</ele></trkpt>
   <trkpt lon="13.503512" lat="51.137055"><ele>103.0</ele></trkpt>
   <trkpt lon="13.501472" lat="51.138027"><ele>101.75</ele></trkpt>
   <trkpt lon="13.501028" lat="51.138286"><ele>102.25</ele></trkpt>
   <trkpt lon="13.500749" lat="51.138474"><ele>101.75</ele></trkpt>
   <trkpt lon="13.500091" lat="51.138951"><ele>101.75</ele></trkpt>
   <trkpt lon="13.499963" lat="51.139037"><ele>102.0</ele></trkpt>
   <trkpt lon="13.499655" lat="51.139120"><ele>102.5</ele></trkpt>
   <trkpt lon="13.499308" lat="51.139265"><ele>103.0</ele></trkpt>
   <trkpt lon="13.499267" lat="51.139305"><ele>103.0</ele></trkpt>
   <trkpt lon="13.499216" lat="51.139437"><ele>102.0</ele></trkpt>
   <trkpt lon="13.499189" lat="51.139493"><ele>102.0</ele></trkpt>
   <trkpt lon="13.499106" lat="51.139568"><ele>102.0</ele></trkpt>
   <trkpt lon="13.499030" lat="51.139605"><ele>102.25</ele></trkpt>
   <trkpt lon="13.498945" lat="51.139643"><ele>102.25</ele></trkpt>
   <trkpt lon="13.498808" lat="51.139676"><ele>102.5</ele></trkpt>
   <trkpt lon="13.498682" lat="51.139715"><ele>102.75</ele></trkpt>
   <trkpt lon="13.498484" lat="51.139797"><ele>103.0</ele></trkpt>
   <trkpt lon="13.498307" lat="51.139889"><ele>102.75</ele></trkpt>
   <trkpt lon="13.498066" lat="51.140035"><ele>102.0</ele></trkpt>
   <trkpt lon="13.497794" lat="51.140223"><ele>102.25</ele></trkpt>
   <trkpt lon="13.497357" lat="51.140585"><ele>102.0</ele></trkpt>
   <trkpt lon="13.496900" lat="51.140919"><ele>102.0</ele></trkpt>
   <trkpt lon="13.496516" lat="51.141248"><ele>102.0</ele></trkpt>
   <trkpt lon="13.496258" lat="51.141503"><ele>102.0</ele></trkpt>
   <trkpt lon="13.495929" lat="51.141793"><ele>102.0</ele></trkpt>
   <trkpt lon="13.495329" lat="51.142318"><ele>102.0</ele></trkpt>
   <trkpt lon="13.494820" lat="51.142735"><ele>102.0</ele></trkpt>
   <trkpt lon="13.494675" lat="51.142905"><ele>102.25</ele></trkpt>
   <trkpt lon="13.494662" lat="51.142963"><ele>102.25</ele></trkpt>
   <trkpt lon="13.494680" lat="51.143014"><ele>102.0</ele></trkpt>
   <trkpt lon="13.494743" lat="51.143109"><ele>101.75</ele></trkpt>
   <trkpt lon="13.494810" lat="51.143189"><ele>101.75</ele></trkpt>
   <trkpt lon="13.494837" lat="51.143237"><ele>101.5</ele></trkpt>
   <trkpt lon="13.494833" lat="51.143268"><ele>101.5</ele></trkpt>
   <trkpt lon="13.494756" lat="51.143332"><ele>101.75</ele></trkpt>
   <trkpt lon="13.494676" lat="51.143382"><ele>101.75</ele></trkpt>
   <trkpt lon="13.494570" lat="51.143423"><ele>102.0</ele></trkpt>
   <trkpt lon="13.494283" lat="51.143601"><ele>102.5</ele></trkpt>
   <trkpt lon="13.493818" lat="51.143932"><ele>103.0</ele></trkpt>
   <trkpt lon="13.493628" lat="51.144099"><ele>103.75</ele></trkpt>
   <trkpt lon="13.493540" lat="51.144175"><ele>103.75</ele></trkpt>
   <trkpt lon="13.493103" lat="51.144657"><ele>103.5</ele></trkpt>
   <trkpt lon="13.492868" lat="51.144960"><ele>102.75</ele></trkpt>
   <trkpt lon="13.492623" lat="51.145171"><ele>102.75</ele></trkpt>
   <trkpt lon="13.492474" lat="51.145340"><ele>102.5</ele></trkpt>
   <trkpt lon="13.492246" lat="51.145577"><ele>101.5</ele></trkpt>
   <trkpt lon="13.491921" lat="51.145896"><ele>101.75</ele></trkpt>
   <trkpt lon="13.491809" lat="51.146020"><ele>101.75</ele></trkpt>
   <trkpt lon="13.491650" lat="51.146171"><ele>101.5</ele></trkpt>
   <trkpt lon="13.491497" lat="51.146282"><ele>101.75</ele></trkpt>
   <trkpt lon="13.491059" lat="51.146505"><ele>103.75</ele></trkpt>
   <trkpt lon="13.490890" lat="51.146603"><ele>104.5</ele></trkpt>
   <trkpt lon="13.490742" lat="51.146703"><ele>104.75</ele></trkpt>
   <trkpt lon="13.490612" lat="51.146824"><ele>104.75</ele></trkpt>
   <trkpt lon="13.490465" lat="51.146985"><ele>104.75</ele></trkpt>
   <trkpt lon="13.490213" lat="51.147343"><ele>103.5</ele></trkpt>
   <trkpt lon="13.490076" lat="51.147512"><ele>104.0</ele></trkpt>
   <trkpt lon="13.489895" lat="51.147663"><ele>104.0</ele></trkpt>
   <trkpt lon="13.489641" lat="51.147835"><ele>103.75</ele></trkpt>
   <trkpt lon="13.489596" lat="51.147870"><ele>103.75</ele></trkpt>
   <trkpt lon="13.489534" lat="51.147912"><ele>103.75</ele></trkpt>
   <trkpt lon="13.487666" lat="51.149190"><ele>102.75</ele></trkpt>
   <trkpt lon="13.487127" lat="51.149568"><ele>102.0</ele></trkpt>
   <trkpt lon="13.485762" lat="51.150484"><ele>102.0</ele></trkpt>
   <trkpt lon="13.485642" lat="51.150519"><ele>102.0</ele></trkpt>
   <trkpt lon="13.485426" lat="51.150545"><ele>102.0</ele></trkpt>
   <trkpt lon="13.485327" lat="51.150563"><ele>102.0</ele></trkpt>
   <trkpt lon="13.485244" lat="51.150588"><ele>102.25</ele></trkpt>
   <trkpt lon="13.485195" lat="51.150631"><ele>102.75</ele></trkpt>
   <trkpt lon="13.485019" lat="51.150944"><ele>102.5</ele></trkpt>
   <trkpt lon="13.484948" lat="51.151029"><ele>102.0</ele></trkpt>
   <trkpt lon="13.484864" lat="51.151107"><ele>102.0</ele></trkpt>
   <trkpt lon="13.484757" lat="51.151181"><ele>102.0</ele></trkpt>
   <trkpt lon="13.483543" lat="51.151872"><ele>101.0</ele></trkpt>
   <trkpt lon="13.482718" lat="51.152374"><ele>101.0</ele></trkpt>
   <trkpt lon="13.481511" lat="51.153110"><ele>101.0</ele></trkpt>
   <trkpt lon="13.480955" lat="51.153473"><ele>101.5</ele></trkpt>
   <trkpt lon="13.480682" lat="51.153665"><ele>101.75</ele></trkpt>
   <trkpt lon="13.480307" lat="51.153967"><ele>102.25</ele></trkpt>
   <trkpt lon="13.480253" lat="51.154018"><ele>102.0</ele></trkpt>
   <trkpt lon="13.479897" lat="51.154480"><ele>100.75</ele></trkpt>
   <trkpt lon="13.479325" lat="51.155287"><ele>100.75</ele></trkpt>
   <trkpt lon="13.479018" lat="51.155726"><ele>100.75</ele></trkpt>
   <trkpt lon="13.478874" lat="51.155955"><ele>100.5</ele></trkpt>
   <trkpt lon="13.478756" lat="51.156175"><ele>100.5</ele></trkpt>
   <trkpt lon="13.478648" lat="51.156397"><ele>100.5</ele></trkpt>
   <trkpt lon="13.478472" lat="51.156834"><ele>101.0</ele></trkpt>
   <trkpt lon="13.478404" lat="51.157050"><ele>101.0</ele></trkpt>
   <trkpt lon="13.478298" lat="51.157504"><ele>100.5</ele></trkpt>
   <trkpt lon="13.478116" lat="51.158618"><ele>100.25</ele></trkpt>
   <trkpt lon="13.478054" lat="51.159168"><ele>100.0</ele></trkpt>
   <trkpt lon="13.478020" lat="51.159664"><ele>100.25</ele></trkpt>
   <trkpt lon="13.478000" lat="51.160231"><ele>100.5</ele></trkpt>
   <trkpt lon="13.478015" lat="51.160397"><ele>100.25</ele></trkpt>
   <trkpt lon="13.477936" lat="51.160733"><ele>100.5</ele></trkpt>
   <trkpt lon="13.477826" lat="51.160969"><ele>100.5</ele></trkpt>
   <trkpt lon="13.477754" lat="51.161088"><ele>100.25</ele></trkpt>
   <trkpt lon="13.477719" lat="51.161166"><ele>100.5</ele></trkpt>
   <trkpt lon="13.477683" lat="51.161244"><ele>100.5</ele></trkpt>
   <trkpt lon="13.477574" lat="51.161392"><ele>100.25</ele></trkpt>
   <trkpt lon="13.477440" lat="51.161540"><ele>101.0</ele></trkpt>
   <trkpt lon="13.477122" lat="51.161836"><ele>102.75</ele></trkpt>
   <trkpt lon="13.477098" lat="51.161868"><ele>102.5</ele></trkpt>
   <trkpt lon="13.477047" lat="51.161938"><ele>102.5</ele></trkpt>
   <trkpt lon="13.476995" lat="51.161994"><ele>102.25</ele></trkpt>
   <trkpt lon="13.476961" lat="51.162037"><ele>102.0</ele></trkpt>
   <trkpt lon="13.476615" lat="51.162368"><ele>101.5</ele></trkpt>
   <trkpt lon="13.476254" lat="51.162735"><ele>101.5</ele></trkpt>
   <trkpt lon="13.476203" lat="51.162827"><ele>101.25</ele></trkpt>
   <trkpt lon="13.475983" lat="51.163054"><ele>101.75</ele></trkpt>
   <trkpt lon="13.475647" lat="51.163235"><ele>100.0</ele></trkpt>
   <trkpt lon="13.475577" lat="51.163311"><ele>98.5</ele></trkpt>
   <trkpt lon="13.475460" lat="51.163447"><ele>99.0</ele></trkpt>
   <trkpt lon="13.475267" lat="51.163669"><ele>101.5</ele></trkpt>
   <trkpt lon="13.475150" lat="51.163808"><ele>100.75</ele></trkpt>
   <trkpt lon="13.475105" lat="51.163794"><ele>101.0</ele></trkpt>
   <trkpt lon="13.475030" lat="51.163769"><ele>101.25</ele></trkpt>
   <trkpt lon="13.474969" lat="51.163746"><ele>101.5</ele></trkpt>
   <trkpt lon="13.474907" lat="51.163735"><ele>101.5</ele></trkpt>
   <trkpt lon="13.474761" lat="51.163707"><ele>101.5</ele></trkpt>
   <trkpt lon="13.474648" lat="51.163693"><ele>102.0</ele></trkpt>
   <trkpt lon="13.474434" lat="51.163679"><ele>103.5</ele></trkpt>
   <trkpt lon="13.474321" lat="51.163679"><ele>103.75</ele></trkpt>
   <trkpt lon="13.474218" lat="51.163697"><ele>104.0</ele></trkpt>
   <trkpt lon="13.474172" lat="51.163719"><ele>104.25</ele></trkpt>
   <trkpt lon="13.474103" lat="51.163800"><ele>104.5</ele></trkpt>
   <trkpt lon="13.474010" lat="51.163789"><ele>104.25</ele></trkpt>
   <trkpt lon="13.474020" lat="51.163763"><ele>104.25</ele></trkpt>
   <trkpt lon="13.474118" lat="51.163653"><ele>104.0</ele></trkpt>
   <trkpt lon="13.474041" lat="51.163529"><ele>103.5</ele></trkpt>
   <trkpt lon="13.474035" lat="51.163520"><ele>103.5</ele></trkpt>
   <trkpt lon="13.473992" lat="51.163612"><ele>103.25</ele></trkpt>
   <trkpt lon="13.473911" lat="51.163688"><ele>103.75</ele></trkpt>
  </trkseg>
 </trk>
</gpx>
